DMSP 5D-3 F16 (USA 172) 
1 28054U 03048A   26062.98838062  .00000199  00000+0  12750-3 0  9990
2 28054  98.9997  86.0725 0008202  86.8106  23.1171 14.14459516154613
METEOSAT-9 (MSG-2)      
1 28912U 05049B   26062.59556743  .00000114  00000+0  00000+0 0  9994
2 28912   9.1231  55.1899 0001832 221.0140 145.2732  1.00276803  5940
DMSP 5D-3 F17 (USA 191) 
1 29522U 06050A   26062.95027311  .00000244  00000+0  14859-3 0  9994
2 29522  98.7412  71.6621 0010082   3.3873 356.7368 14.14961025997535
FENGYUN 3A              
1 32958U 08026A   26062.81450664  .00000156  00000+0  94661-4 0  9994
2 32958  98.6791   5.6746 0009811  73.3930 286.8323 14.19544298920450
GOES 14                 
1 35491U 09033A   26062.82475610  .00000116  00000+0  00000+0 0  9992
2 35491   1.4174  84.4300 0002213 297.3554 278.8486  1.00124030  5530
DMSP 5D-3 F18 (USA 210) 
1 35951U 09057A   26062.91339995  .00000358  00000+0  20876-3 0  9999
2 35951  98.8955  43.9623 0010795 184.8078 175.2993 14.14831661844708
EWS-G2 (GOES 15)        
1 36411U 10008A   26062.95564993  .00000008  00000+0  00000+0 0  9996
2 36411   1.0080  85.1578 0001805  21.3342 102.7379  1.00269324 58581
COMS 1                  
1 36744U 10032A   26062.96839000 -.00000355  00000+0  00000+0 0  9993
2 36744   4.5347  76.8758 0001187 278.6079 283.0302  1.00272871 50030
FENGYUN 3B              
1 37214U 10059A   26062.93982244 -.00000173  00000+0 -65913-4 0  9999
2 37214  98.9779 108.4411 0022990 123.6957 336.8098 14.14814414792548
SUOMI NPP               
1 37849U 11061A   26062.96347964  .00000121  00000+0  78397-4 0  9995
2 37849  98.7864   4.6119 0000428 286.0376  74.0753 14.19541660743515
METEOSAT-10 (MSG-3)     
1 38552U 12035B   26062.80044853 -.00000015  00000+0  00000+0 0  9997
2 38552   4.4223  61.4660 0002501 294.0063  94.5172  1.00277243 49800
METOP-B                 
1 38771U 12049A   26062.95453932  .00000155  00000+0  91007-4 0  9999
2 38771  98.6653 116.4862 0001216 297.7518  62.3536 14.21442476698319
INSAT-3D                
1 39216U 13038B   26062.96873667 -.00000351  00000+0  00000+0 0  9992
2 39216   1.6544  83.9201 0001771 240.8778 315.1496  1.00273595 46021
FENGYUN 3C              
1 39260U 13052A   26062.95117252  .00000157  00000+0  10112-3 0  9999
2 39260  98.4882  41.7163 0014108 330.4926  29.5451 14.15726814643675
METEOR-M 2              
1 40069U 14037A   26062.91124902  .00000301  00000+0  15719-3 0  9997
2 40069  98.5011  42.4353 0005692 354.6914   5.4203 14.21426434604364
HIMAWARI-8              
1 40267U 14060A   26062.97090335 -.00000289  00000+0  00000+0 0  9990
2 40267   0.0335 250.8339 0000781  74.2519 326.8113  1.00272003 41707
FENGYUN 2G              
1 40367U 14090A   26062.96284331 -.00000313  00000+0  00000+0 0  9992
2 40367   5.3729  74.0915 0001937 152.9440  20.9763  1.00274673 40943
METEOSAT-11 (MSG-4)     
1 40732U 15034A   26062.87357000  .00000050  00000+0  00000+0 0  9998
2 40732   2.9361  71.6844 0001803 270.7209 143.1153  1.00265933  6168
ELEKTRO-L 2             
1 41105U 15074A   26062.86880331 -.00000128  00000+0  00000+0 0  9991
2 41105   6.4296  71.8188 0003467 237.1165 150.9510  1.00270829 37457
INSAT-3DR               
1 41752U 16054A   26062.95772994 -.00000090  00000+0  00000+0 0  9991
2 41752   0.0460  96.8891 0013289 184.8413 298.7404  1.00272368 34767
HIMAWARI-9              
1 41836U 16064A   26062.97090335 -.00000288  00000+0  00000+0 0  9998
2 41836   0.0152 182.6425 0001151 183.5546 285.8263  1.00272405 34158
GOES 16                 
1 41866U 16071A   26062.92228311 -.00000104  00000+0  00000+0 0  9998
2 41866   0.1461  90.1616 0002547 217.4792  81.3532  1.00271688 34048
FENGYUN 4A              
1 41882U 16077A   26062.96752333 -.00000369  00000+0  00000+0 0  9995
2 41882   2.0547  81.4189 0007479 135.8532  56.3088  1.00279430 33875
CYGFM05                 
1 41884U 16078A   26062.84689905  .00031788  00000+0  51340-3 0  9994
2 41884  34.9567 235.7040 0006973 235.4679 124.5386 15.51825159512350
CYGFM04                 
1 41885U 16078B   26062.78056128  .00036077  00000+0  51484-3 0  9998
2 41885  34.9325 208.4221 0006128 268.4132  91.5890 15.55205696512549
CYGFM02                 
1 41886U 16078C   26062.81851295  .00093522  00000+0  12223-2 0  9996
2 41886  34.9409 205.1979 0007089 269.4446  90.5466 15.57345041512698
CYGFM01                 
1 41887U 16078D   26062.87573570  .00033232  00000+0  52817-3 0  9996
2 41887  34.9394 237.3329 0006623 227.7937 132.2224 15.52264938512307
CYGFM08                 
1 41888U 16078E   26062.86138855  .00034512  00000+0  51958-3 0  9996
2 41888  34.9430 219.3646 0008152 252.2571 107.7263 15.53739040512545
CYGFM07                 
1 41890U 16078G   26062.83054931  .00035434  00000+0  52035-3 0  9999
2 41890  34.9450 208.0526 0006663 272.2402  87.7559 15.54427216512569
CYGFM03                 
1 41891U 16078H   26062.73744027  .00034759  00000+0  51041-3 0  9996
2 41891  34.9404 210.6464 0005940 256.6776 103.3285 15.54436642512526
FENGYUN 3D              
1 43010U 17072A   26062.92759252 -.00000175  00000+0 -60915-4 0  9991
2 43010  99.0015  35.5088 0001841  25.2858 334.8407 14.19711893430052
NOAA 20 (JPSS-1)        
1 43013U 17073A   26062.90763584  .00000102  00000+0  69397-4 0  9997
2 43013  98.7686   3.3525 0000934 145.4890 214.6347 14.19534320429534
GOES 17                 
1 43226U 18022A   26062.92531646 -.00000195  00000+0  00000+0 0  9996
2 43226   0.6669  87.5647 0002274 220.8746  96.8465  1.00270388 29364
FENGYUN 2H              
1 43491U 18050A   26063.10132078 -.00000139  00000+0  00000+0 0  9996
2 43491   2.7598  80.3634 0001718 173.9540  23.0784  1.00272888 28385
METOP-C                 
1 43689U 18087A   26062.97913137  .00000176  00000+0  10041-3 0  9992
2 43689  98.6777 124.4488 0002168 107.8385 252.3030 14.21494867379882
GEO-KOMPSAT-2A          
1 43823U 18100A   26062.54061360 -.00000359  00000+0  00000+0 0  9997
2 43823   0.0217  70.8317 0001385 331.7632  81.5654  1.00269693 26575
METEOR-M2 2             
1 44387U 19038A   26062.94449745  .00000046  00000+0  39649-4 0  9993
2 44387  98.9072  48.7166 0001190  13.7075 346.4136 14.24330789346314
ARKTIKA-M 1             
1 47719U 21016A   26061.82287547 -.00000108  00000+0  00000+0 0  9994
2 47719  63.2036  72.8571 7242814 269.4536  15.2019  2.00620868 36653
FENGYUN 3E              
1 49008U 21062A   26062.99418984  .00000084  00000+0  60173-4 0  9992
2 49008  98.7506  67.5712 0002423  52.6470 307.4927 14.19893016241653
GOES 18                 
1 51850U 22021A   26062.77332172  .00000083  00000+0  00000+0 0  9993
2 51850   0.0285  75.7364 0000601 319.5556 267.6184  1.00271736  5533
NOAA 21 (JPSS-2)        
1 54234U 22150A   26062.94240751  .00000118  00000+0  77028-4 0  9993
2 54234  98.7549   3.2743 0002521 116.7706 243.3728 14.19550369171617
METEOSAT-12 (MTG-I1)    
1 54743U 22170C   26062.58646740 -.00000021  00000+0  00000+0 0  9993
2 54743   0.7450  29.0227 0001882 282.4552  60.7136  1.00274767 11919
TIANMU-1 03             
1 55973U 23039A   26062.91724300  .00022833  00000+0  50307-3 0  9993
2 55973  97.5168 233.0419 0003962 117.9662 242.1987 15.43938622164570
TIANMU-1 04             
1 55974U 23039B   26062.94222884  .00025549  00000+0  55475-3 0  9995
2 55974  97.5099 232.2297 0004629 114.2668 245.9064 15.44345590164581
TIANMU-1 05             
1 55975U 23039C   26062.95842139  .00024717  00000+0  54533-3 0  9998
2 55975  97.5145 232.7380 0003748 135.2873 224.8677 15.43882512164567
TIANMU-1 06             
1 55976U 23039D   26062.94214250  .00025228  00000+0  54733-3 0  9995
2 55976  97.5156 233.2563 0004036 130.9637 229.1961 15.44375201164589
FENGYUN 3G              
1 56232U 23055A   26062.84793155  .00041630  00000+0  62933-3 0  9990
2 56232  49.9931 169.1646 0010725 347.1492  12.9201 15.54176618163631
METEOR-M2 3             
1 57166U 23091A   26062.98578574  .00000019  00000+0  27137-4 0  9992
2 57166  98.6226 120.0531 0005042 112.2527 247.9187 14.24036960139548
TIANMU-1 07             
1 57399U 23101A   26062.76060333  .00009938  00000+0  35390-3 0  9995
2 57399  97.2730 115.8436 0004592 144.4705 215.6842 15.29128212145535
TIANMU-1 08             
1 57400U 23101B   26063.12324823  .00000522  00000+0  20954-4 0  9997
2 57400  97.2729 115.9747 0006498 142.5381 217.6313 15.29236106145580
TIANMU-1 09             
1 57401U 23101C   26062.84284749  .00000774  00000+0  29842-4 0  9992
2 57401  97.2684 115.1798 0005252 149.5222 210.6325 15.29217891145549
TIANMU-1 10             
1 57402U 23101D   26062.94283449  .00010746  00000+0  38118-3 0  9995
2 57402  97.2761 116.2137 0006927 149.1425 211.0224 15.29220834145551
FENGYUN 3F              
1 57490U 23111A   26062.98021487  .00000119  00000+0  76429-4 0  9990
2 57490  98.6939 134.9108 0001332  82.3577 277.7751 14.19917971133932
ARKTIKA-M 2             
1 58584U 23198A   26062.08261615  .00000137  00000+0  00000+0 0  9997
2 58584  63.2203 166.1216 6876963 267.7841  18.8417  2.00614888 16194
TIANMU-1 11             
1 58645U 23205A   26062.96948087  .00008368  00000+0  32985-3 0  9991
2 58645  97.3545  86.2131 0009655  27.6789 332.4961 15.25785870121479
TIANMU-1 12             
1 58646U 23205B   26063.00162323  .00009878  00000+0  38988-3 0  9995
2 58646  97.3534  86.0250 0007465  14.2438 345.9010 15.25711021121468
TIANMU-1 13             
1 58647U 23205C   26062.96712159  .00008913  00000+0  35163-3 0  9999
2 58647  97.3561  86.2274 0007098 355.4107   4.7065 15.25758255121451
TIANMU-1 14             
1 58648U 23205D   26063.01718933  .00009442  00000+0  37249-3 0  9998
2 58648  97.3496  85.5506 0008009 358.3609   1.7602 15.25736968121463
TIANMU-1 19             
1 58660U 23208A   26062.90824676  .00013730  00000+0  47956-3 0  9995
2 58660  97.4388 178.8901 0004333 342.1115  17.9972 15.29685535121222
TIANMU-1 20             
1 58661U 23208B   26062.96241318  .00013637  00000+0  45906-3 0  9997
2 58661  97.4327 179.4723 0006641 347.6442  12.4635 15.30876141121315
TIANMU-1 21             
1 58662U 23208C   26062.96839789  .00016185  00000+0  51159-3 0  9991
2 58662  97.4381 181.7312 0006389 340.9668  19.1334 15.32864078121432
TIANMU-1 22             
1 58663U 23208D   26062.92445799  .00013240  00000+0  46789-3 0  9994
2 58663  97.4383 178.9213 0003585  14.5975 345.5368 15.29312996121237
TIANMU-1 15             
1 58700U 24004A   26062.94936154  .00009135  00000+0  36069-3 0  9991
2 58700  97.4660 249.1958 0007156  10.1719 349.9663 15.25730892119722
TIANMU-1 16             
1 58701U 24004B   26062.93297351  .00010304  00000+0  40609-3 0  9995
2 58701  97.4602 248.5068 0005696  16.0074 344.1343 15.25764802119720
TIANMU-1 17             
1 58702U 24004C   26062.98102241  .00009893  00000+0  38962-3 0  9994
2 58702  97.4635 249.0057 0004925  19.0813 341.0608 15.25802204119728
TIANMU-1 18             
1 58703U 24004D   26062.96599760  .00008930  00000+0  35258-3 0  9995
2 58703  97.4652 249.2012 0004339  20.4507 339.6904 15.25751813119727
INSAT-3DS               
1 58990U 24033A   26062.95928995 -.00000168  00000+0  00000+0 0  9999
2 58990   0.0570 264.5063 0002311  92.5566 232.0549  1.00270331 46014
METEOR-M2 4             
1 59051U 24039A   26062.95137971  .00000061  00000+0  46770-4 0  9990
2 59051  98.6896  23.6403 0008067 110.7568 249.4475 14.22416139104301
GOES 19                 
1 60133U 24119A   26062.92817647 -.00000262  00000+0  00000+0 0  9999
2 60133   0.0168 328.2901 0000980  50.7136  41.6200  1.00272050  5908
FENGYUN 3H              
1 65815U 25219A   26062.90604569  .00000109  00000+0  71900-4 0  9999
2 65815  98.6679   5.7741 0001398  65.6811 294.4511 14.19930776 22449
